{"fetched_at":"2026-07-10T18:07:50.152Z","source":"https://celestrak.org/NORAD/elements/gp.php?GROUP=kuiper&FORMAT=JSON","constellation":"kuiper","records":[{"OBJECT_NAME":"KUIPER-00062","OBJECT_ID":"2025-134Y","EPOCH":"2026-07-09T07:43:18.369696","CLASSIFICATION_TYPE":"U","MEAN_MOTION":14.79954369,"ECCENTRICITY":0.00009425,"INCLINATION":51.8959,"RA_OF_ASC_NODE":52.7204,"ARG_OF_PERICENTER":95.5367,"MEAN_ANOMALY":264.5703,"EPHEMERIS_TYPE":0,"NORAD_CAT_ID":64522,"ELEMENT_SET_NO":999,"REV_AT_EPOCH":5812,"BSTAR":0.00088671847,"MEAN_MOTION_DOT":0.00006549,"MEAN_MOTION_DDOT":0},{"OBJECT_NAME":"KUIPER-00063","OBJECT_ID":"2025-134Z","EPOCH":"2026-07-09T09:08:56.833440","CLASSIFICATION_TYPE":"U","MEAN_MOTION":14.79932179,"ECCENTRICITY":0.00007752,"INCLINATION":51.9015,"RA_OF_ASC_NODE":60.0098,"ARG_OF_PERICENTER":104.5397,"MEAN_ANOMALY":255.5651,"EPHEMERIS_TYPE":0,"NORAD_CAT_ID":64523,"ELEMENT_SET_NO":999,"REV_AT_EPOCH":5802,"BSTAR":0.00036187531,"MEAN_MOTION_DOT":0.00002539,"MEAN_MOTION_DDOT":0},{"OBJECT_NAME":"KUIPER-00064","OBJECT_ID":"2025-134AA","EPOCH":"2026-07-09T01:06:36.111456","CLASSIFICATION_TYPE":"U","MEAN_MOTION":14.79930421,"ECCENTRICITY":0.00007233,"INCLINATION":51.9019,"RA_OF_ASC_NODE":58.9156,"ARG_OF_PERICENTER":111.3501,"MEAN_ANOMALY":248.7539,"EPHEMERIS_TYPE":0,"NORAD_CAT_ID":64524,"ELEMENT_SET_NO":999,"REV_AT_EPOCH":5801,"BSTAR":0.00030714668,"MEAN_MOTION_DOT":0.00002121,"MEAN_MOTION_DDOT":0},{"OBJECT_NAME":"KUIPER-00065","OBJECT_ID":"2025-134AB","EPOCH":"2026-07-10T01:17:30.651072","CLASSIFICATION_TYPE":"U","MEAN_MOTION":14.79934036,"ECCENTRICITY":0.00007322,"INCLINATION":51.9025,"RA_OF_ASC_NODE":59.6298,"ARG_OF_PERICENTER":104.9399,"MEAN_ANOMALY":255.1645,"EPHEMERIS_TYPE":0,"NORAD_CAT_ID":64525,"ELEMENT_SET_NO":999,"REV_AT_EPOCH":5807,"BSTAR":0.00031196949,"MEAN_MOTION_DOT":0.00002158,"MEAN_MOTION_DDOT":0},{"OBJECT_NAME":"KUIPER-00066","OBJECT_ID":"2025-134AC","EPOCH":"2026-07-09T17:59:42.454752","CLASSIFICATION_TYPE":"U","MEAN_MOTION":14.79932029,"ECCENTRICITY":0.00005966,"INCLINATION":51.9028,"RA_OF_ASC_NODE":358.2515,"ARG_OF_PERICENTER":107.9356,"MEAN_ANOMALY":252.1672,"EPHEMERIS_TYPE":0,"NORAD_CAT_ID":64526,"ELEMENT_SET_NO":999,"REV_AT_EPOCH":5892,"BSTAR":0.00032974449,"MEAN_MOTION_DOT":0.00002293,"MEAN_MOTION_DDOT":0},{"OBJECT_NAME":"KUIPER-00069","OBJECT_ID":"2025-151A","EPOCH":"2026-07-10T03:29:51.558432","CLASSIFICATION_TYPE":"U","MEAN_MOTION":14.79934687,"ECCENTRICITY":0.0000724,"INCLINATION":51.9009,"RA_OF_ASC_NODE":99.142,"ARG_OF_PERICENTER":106.9851,"MEAN_ANOMALY":253.119,"EPHEMERIS_TYPE":0,"NORAD_CAT_ID":64816,"ELEMENT_SET_NO":999,"REV_AT_EPOCH":5489,"BSTAR":0.0003238035,"MEAN_MOTION_DOT":0.00002248,"MEAN_MOTION_DDOT":0},{"OBJECT_NAME":"KUIPER-00070","OBJECT_ID":"2025-151B","EPOCH":"2026-07-10T05:16:53.117472","CLASSIFICATION_TYPE":"U","MEAN_MOTION":14.79930946,"ECCENTRICITY":0.00008567,"INCLINATION":51.8993,"RA_OF_ASC_NODE":123.7257,"ARG_OF_PERICENTER":89.2639,"MEAN_ANOMALY":270.8422,"EPHEMERIS_TYPE":0,"NORAD_CAT_ID":64817,"ELEMENT_SET_NO":999,"REV_AT_EPOCH":5456,"BSTAR":0.00031371911,"MEAN_MOTION_DOT":0.00002171,"MEAN_MOTION_DDOT":0},{"OBJECT_NAME":"KUIPER-00071","OBJECT_ID":"2025-151C","EPOCH":"2026-07-10T05:20:44.624544","CLASSIFICATION_TYPE":"U","MEAN_MOTION":14.79910588,"ECCENTRICITY":0.00007541,"INCLINATION":51.8999,"RA_OF_ASC_NODE":121.2517,"ARG_OF_PERICENTER":92.8985,"MEAN_ANOMALY":267.2064,"EPHEMERIS_TYPE":0,"NORAD_CAT_ID":64818,"ELEMENT_SET_NO":999,"REV_AT_EPOCH":5341,"BSTAR":0.00015226113,"MEAN_MOTION_DOT":0.00000939,"MEAN_MOTION_DDOT":0},{"OBJECT_NAME":"KUIPER-00072","OBJECT_ID":"2025-151D","EPOCH":"2026-07-10T03:25:57.462816","CLASSIFICATION_TYPE":"U","MEAN_MOTION":14.79919121,"ECCENTRICITY":0.00008233,"INCLINATION":51.8946,"RA_OF_ASC_NODE":101.5485,"ARG_OF_PERICENTER":97.3353,"MEAN_ANOMALY":262.7702,"EPHEMERIS_TYPE":0,"NORAD_CAT_ID":64819,"ELEMENT_SET_NO":999,"REV_AT_EPOCH":5368,"BSTAR":0.00031080942,"MEAN_MOTION_DOT":0.00002148,"MEAN_MOTION_DDOT":0},{"OBJECT_NAME":"KUIPER-00073","OBJECT_ID":"2025-151E","EPOCH":"2026-07-10T04:32:06.817056","CLASSIFICATION_TYPE":"U","MEAN_MOTION":14.79939657,"ECCENTRICITY":0.00008926,"INCLINATION":51.8993,"RA_OF_ASC_NODE":121.385,"ARG_OF_PERICENTER":90.8698,"MEAN_ANOMALY":269.2367,"EPHEMERIS_TYPE":0,"NORAD_CAT_ID":64820,"ELEMENT_SET_NO":999,"REV_AT_EPOCH":5459,"BSTAR":0.00036866299,"MEAN_MOTION_DOT":0.00002591,"MEAN_MOTION_DDOT":0},{"OBJECT_NAME":"KUIPER-00074","OBJECT_ID":"2025-151F","EPOCH":"2026-07-10T06:00:02.000160","CLASSIFICATION_TYPE":"U","MEAN_MOTION":15.98768332,"ECCENTRICITY":0.00026203,"INCLINATION":51.8764,"RA_OF_ASC_NODE":23.9815,"ARG_OF_PERICENTER":241.7454,"MEAN_ANOMALY":182.3702,"EPHEMERIS_TYPE":0,"NORAD_CAT_ID":64821,"ELEMENT_SET_NO":999,"REV_AT_EPOCH":578,"BSTAR":0.00031704126,"MEAN_MOTION_DOT":0.00152337,"MEAN_MOTION_DDOT":0.000020748837},{"OBJECT_NAME":"KUIPER-00075","OBJECT_ID":"2025-151G","EPOCH":"2026-07-09T21:25:01.108416","CLASSIFICATION_TYPE":"U","MEAN_MOTION":15.45340863,"ECCENTRICITY":0.00032939,"INCLINATION":51.8686,"RA_OF_ASC_NODE":345.3609,"ARG_OF_PERICENTER":341.3635,"MEAN_ANOMALY":18.7234,"EPHEMERIS_TYPE":0,"NORAD_CAT_ID":64822,"ELEMENT_SET_NO":999,"REV_AT_EPOCH":5527,"BSTAR":0.00074231137,"MEAN_MOTION_DOT":0.00035753,"MEAN_MOTION_DDOT":0},{"OBJECT_NAME":"KUIPER-00076","OBJECT_ID":"2025-151H","EPOCH":"2026-07-09T22:18:42.673248","CLASSIFICATION_TYPE":"U","MEAN_MOTION":14.7992726,"ECCENTRICITY":0.00007822,"INCLINATION":51.8991,"RA_OF_ASC_NODE":112.5514,"ARG_OF_PERICENTER":91.0628,"MEAN_ANOMALY":269.0424,"EPHEMERIS_TYPE":0,"NORAD_CAT_ID":64823,"ELEMENT_SET_NO":999,"REV_AT_EPOCH":5351,"BSTAR":0.0003469061,"MEAN_MOTION_DOT":0.00002424,"MEAN_MOTION_DDOT":0},{"OBJECT_NAME":"KUIPER-00077","OBJECT_ID":"2025-151J","EPOCH":"2026-07-10T04:39:55.215648","CLASSIFICATION_TYPE":"U","MEAN_MOTION":14.79928582,"ECCENTRICITY":0.00003736,"INCLINATION":51.9008,"RA_OF_ASC_NODE":116.3989,"ARG_OF_PERICENTER":160.0283,"MEAN_ANOMALY":200.0694,"EPHEMERIS_TYPE":0,"NORAD_CAT_ID":64824,"ELEMENT_SET_NO":999,"REV_AT_EPOCH":5348,"BSTAR":0.00033348736,"MEAN_MOTION_DOT":0.00002322,"MEAN_MOTION_DDOT":0},{"OBJECT_NAME":"KUIPER-00078","OBJECT_ID":"2025-151K","EPOCH":"2026-07-10T03:55:09.226272","CLASSIFICATION_TYPE":"U","MEAN_MOTION":14.79927578,"ECCENTRICITY":0.0000835,"INCLINATION":51.899,"RA_OF_ASC_NODE":114.0135,"ARG_OF_PERICENTER":93.3217,"MEAN_ANOMALY":266.7841,"EPHEMERIS_TYPE":0,"NORAD_CAT_ID":64825,"ELEMENT_SET_NO":999,"REV_AT_EPOCH":5351,"BSTAR":-0.000053489397,"MEAN_MOTION_DOT":-0.00000629,"MEAN_MOTION_DDOT":0},{"OBJECT_NAME":"KUIPER-00079","OBJECT_ID":"2025-151L","EPOCH":"2026-07-10T04:35:59.616672","CLASSIFICATION_TYPE":"U","MEAN_MOTION":14.79946059,"ECCENTRICITY":0.00021556,"INCLINATION":51.8978,"RA_OF_ASC_NODE":118.8477,"ARG_OF_PERICENTER":74.892,"MEAN_ANOMALY":285.2281,"EPHEMERIS_TYPE":0,"NORAD_CAT_ID":64826,"ELEMENT_SET_NO":999,"REV_AT_EPOCH":5464,"BSTAR":0.00045045967,"MEAN_MOTION_DOT":0.00003215,"MEAN_MOTION_DDOT":0}]}
