KUIPER-00062            
1 64522U 25134Y   26190.32174039  .00006549  00000+0  88672-3 0  9998
2 64522  51.8959  52.7204 0000942  95.5367 264.5703 14.79954369 58128
KUIPER-00063            
1 64523U 25134Z   26190.38121335  .00002539  00000+0  36188-3 0  9996
2 64523  51.9015  60.0098 0000775 104.5397 255.5651 14.79932179 58020
KUIPER-00064            
1 64524U 25134AA  26190.04625129  .00002121  00000+0  30715-3 0  9997
2 64524  51.9019  58.9156 0000723 111.3501 248.7539 14.79930421 58018
KUIPER-00065            
1 64525U 25134AB  26191.05382698  .00002158  00000+0  31197-3 0  9996
2 64525  51.9025  59.6298 0000732 104.9399 255.1645 14.79934036 58076
KUIPER-00066            
1 64526U 25134AC  26190.74979693  .00002293  00000+0  32974-3 0  9993
2 64526  51.9028 358.2515 0000596 107.9356 252.1672 14.79932029 58925
KUIPER-00069            
1 64816U 25151A   26191.14573563  .00002248  00000+0  32380-3 0  9996
2 64816  51.9009  99.1420 0000724 106.9851 253.1190 14.79934687 54894
KUIPER-00070            
1 64817U 25151B   26191.22005923  .00002171  00000+0  31372-3 0  9991
2 64817  51.8993 123.7257 0000856  89.2639 270.8422 14.79930946 54563
KUIPER-00071            
1 64818U 25151C   26191.22273871  .00000939  00000+0  15226-3 0  9991
2 64818  51.8999 121.2517 0000754  92.8985 267.2064 14.79910588 53418
KUIPER-00072            
1 64819U 25151D   26191.14302619  .00002148  00000+0  31081-3 0  9997
2 64819  51.8946 101.5485 0000823  97.3353 262.7702 14.79919121 53682
KUIPER-00073            
1 64820U 25151E   26191.18896779  .00002591  00000+0  36866-3 0  9996
2 64820  51.8993 121.3850 0000892  90.8698 269.2367 14.79939657 54594
KUIPER-00074            
1 64821U 25151F   26191.25002315  .00152337  20749-4  31704-3 0  9997
2 64821  51.8764  23.9815 0002620 241.7454 182.3702 15.98768332  5784
KUIPER-00075            
1 64822U 25151G   26190.89237394  .00035753  00000+0  74231-3 0  9991
2 64822  51.8686 345.3609 0003293 341.3635  18.7234 15.45340863 55273
KUIPER-00076            
1 64823U 25151H   26190.92966057  .00002424  00000+0  34691-3 0  9996
2 64823  51.8991 112.5514 0000782  91.0628 269.0424 14.79927260 53518
KUIPER-00077            
1 64824U 25151J   26191.19438907  .00002322  00000+0  33349-3 0  9991
2 64824  51.9008 116.3989 0000373 160.0283 200.0694 14.79928582 53485
KUIPER-00078            
1 64825U 25151K   26191.16330123 -.00000629  00000+0 -53489-4 0  9998
2 64825  51.8990 114.0135 0000835  93.3217 266.7841 14.79927578 53512
KUIPER-00079            
1 64826U 25151L   26191.19166223  .00003215  00000+0  45046-3 0  9991
2 64826  51.8978 118.8477 0002155  74.8920 285.2281 14.79946059 54646
